[
    {
        "CCSDS_OMM_VERS": "3.0",
        "COMMENT": "GENERATED VIA SPACE-TRACK.ORG API",
        "CREATION_DATE": "2025-03-02T18:08:23",
        "ORIGINATOR": "18 SPCS",
        "OBJECT_NAME": "BEIDOU 3 G3",
        "OBJECT_ID": "2020-040A",
        "CENTER_NAME": "EARTH",
        "REF_FRAME": "TEME",
        "TIME_SYSTEM": "UTC",
        "MEAN_ELEMENT_THEORY": "SGP4",
        "EPOCH": "2025-03-02T14:21:46.214784",
        "MEAN_MOTION": "1.00274747",
        "ECCENTRICITY": "0.00030870",
        "INCLINATION": "1.3114",
        "RA_OF_ASC_NODE": "61.0095",
        "ARG_OF_PERICENTER": "312.8060",
        "MEAN_ANOMALY": "112.7651",
        "EPHEMERIS_TYPE": "0",
        "CLASSIFICATION_TYPE": "U",
        "NORAD_CAT_ID": "45807",
        "ELEMENT_SET_NO": "999",
        "REV_AT_EPOCH": "1734",
        "BSTAR": "0.00000000000000",
        "MEAN_MOTION_DOT": "-0.00000356",
        "MEAN_MOTION_DDOT": "0.0000000000000",
        "SEMIMAJOR_AXIS": "42163.902",
        "PERIOD": "1436.054",
        "APOAPSIS": "35798.783",
        "PERIAPSIS": "35772.751",
        "OBJECT_TYPE": "PAYLOAD",
        "RCS_SIZE": "LARGE",
        "COUNTRY_CODE": "PRC",
        "LAUNCH_DATE": "2020-06-23",
        "SITE": "XSC",
        "DECAY_DATE": null,
        "FILE": "4657142",
        "GP_ID": "282088766",
        "TLE_LINE0": "0 BEIDOU 3 G3",
        "TLE_LINE1": "1 45807U 20040A   25061.59845156 -.00000356  00000-0  00000-0 0  9992",
        "TLE_LINE2": "2 45807   1.3114  61.0095 0003087 312.8060 112.7651  1.00274747 17345"
    }
]